STARLINK-4544           
1 53394U 22097G   22248.58334491 -.00370927  00000+0 -28773-2 0  9997
2 53394  53.2180 117.0562 0001158  86.1927 256.4208 15.72200299  4586
STARLINK-4534           
1 53395U 22097H   22248.58334491 -.01121628  00000+0 -20738-1 0  9993
2 53395  53.2174 118.1484 0001329  68.8259  73.9514 15.51397602  1301
STARLINK-4524           
1 53396U 22097J   22248.58334491 -.01121628  00000+0 -20716-1 0  9990
2 53396  53.2175 118.1972 0001333  74.5868  71.4963 15.51427022  1301
STARLINK-4515           
1 53397U 22097K   22248.58334491 -.01121713  00000+0 -20734-1 0  9996
2 53397  53.2174 118.1605 0001363  66.6832  76.9206 15.51404992  1301
STARLINK-4512           
1 53398U 22097L   22248.58334491 -.01121025  00000+0 -20693-1 0  9997
2 53398  53.2175 118.2215 0001323  73.3573  74.3783 15.51441409  1300
STARLINK-4528           
1 53399U 22097M   22248.58334491 -.01121753  00000+0 -20724-1 0  9991
2 53399  53.2174 118.1848 0001333  73.7073  71.5494 15.51419712  1301
STARLINK-4520           
1 53400U 22097N   22248.58334491 -.01120351  00000+0 -20668-1 0  9994
2 53400  53.2175 118.2596 0001389  61.3805  88.0071 15.51455951  1302
STARLINK-4525           
1 53401U 22097P   22248.58334491 -.01121448  00000+0 -20707-1 0  9997
2 53401  53.2175 118.2091 0001318  77.1943  69.7151 15.51434281  1301
STARLINK-4499           
1 53402U 22097Q   22248.58334491 -.01119997  00000+0 -20656-1 0  9997
2 53402  53.2175 118.2717 0001296  71.2572  78.9565 15.51463113  1302
STARLINK-4507           
1 53403U 22097R   22248.58334491 -.01120995  00000+0 -20687-1 0  9992
2 53403  53.2175 118.2298 0001320  73.9810  74.5809 15.51448657  1308
STARLINK-4509           
1 53404U 22097S   22248.58334491 -.00028881  00000+0 -20167-3 0  9998
2 53404  53.2188 117.4599 0001160  86.8407  59.5486 15.73245946  1309
STARLINK-4510           
1 53405U 22097T   22248.58334491 -.01119460  00000+0 -20640-1 0  9998
2 53405  53.2175 118.2835 0001260  74.6984  76.3413 15.51470189  1306
STARLINK-4533           
1 53406U 22097U   22248.58334491 -.00032080  00000+0 -22477-3 0  9992
2 53406  53.2191 117.4532 0000986  89.9999  59.9747 15.73227348  4580
STARLINK-4537           
1 53407U 22097V   22248.58334491 -.00030762  00000+0 -21514-3 0  9999
2 53407  53.2178 117.4636 0000996  83.8118  62.0192 15.73246539  4580
STARLINK-4491           
1 53408U 22097W   22248.58334491 -.00025095  00000+0 -17492-3 0  9993
2 53408  53.2178 117.4593 0001254  79.0886  69.1359 15.73199464  4587
STARLINK-4490           
1 53409U 22097X   22248.58334491 -.00015349  00000+0 -10512-3 0  9991
2 53409  53.2187 117.4580 0001161  90.7979  56.2042 15.73205189  1309
STARLINK-4492           
1 53410U 22097Y   22248.58334491 -.00027168  00000+0 -18939-3 0  9996
2 53410  53.2178 117.4583 0001011  83.6789  65.0747 15.73248943  1303
STARLINK-4497           
1 53411U 22097Z   22248.58334491 -.00049416  00000+0 -34948-3 0  9995
2 53411  53.2177 117.4602 0001016  98.3072  49.3258 15.73218267  4589
STARLINK-4496           
1 53412U 22097AA  22248.58334491 -.00017595  00000+0 -12119-3 0  9995
2 53412  53.2176 117.4541 0000957  94.1040  56.4716 15.73205756  4580
STARLINK-4500           
1 53413U 22097AB  22248.58334491 -.00020087  00000+0 -13897-3 0  9990
2 53413  53.2194 117.4557 0001122  86.1205  63.2358 15.73213350  4584
STARLINK-4304           
1 53414U 22097AC  22248.58334491 -.00049739  00000+0 -35176-3 0  9990
2 53414  53.2192 117.4516 0000946  96.1458  55.0281 15.73221810  4586
STARLINK-4479           
1 53415U 22097AD  22248.58334491 -.00038090  00000+0 -26788-3 0  9998
2 53415  53.2178 117.4517 0001042  77.1947  74.5561 15.73228887  4580
STARLINK-4480           
1 53416U 22097AE  22248.58334491 -.00041497  00000+0 -29247-3 0  9997
2 53416  53.2185 117.4447 0001006  88.4549  65.1068 15.73219926  4586
STARLINK-4484           
1 53417U 22097AF  22248.58334491 -.00039714  00000+0 -27952-3 0  9998
2 53417  53.2194 117.4498 0000969  86.0551  66.2711 15.73231074  4582
STARLINK-4481           
1 53418U 22097AG  22248.58334491  .00038840  00000+0  27993-3 0  9991
2 53418  53.2197 117.3396 0001006 105.9648  99.5491 15.73195306  1301
STARLINK-4476           
1 53419U 22097AH  22248.58334491 -.00031496  00000+0 -22040-3 0  9992
2 53419  53.2193 117.4476 0000974  82.4584  70.4647 15.73246830  1309
STARLINK-4552           
1 53420U 22097AJ  22248.58334491 -.00028288  00000+0 -19785-3 0  9991
2 53420  53.2178 117.4431 0001252  98.0796  57.9061 15.73195631  4588
STARLINK-4545           
1 53421U 22097AK  22248.58334491 -.00007824  00000+0 -51356-4 0  9996
2 53421  53.2194 117.4455 0001125  91.6345  62.4878 15.73211955  4586
STARLINK-4546           
1 53422U 22097AL  22248.58334491 -.00053853  00000+0 -38130-3 0  9994
2 53422  53.2195 117.4398 0000974  85.8447  71.2510 15.73227937  4581
STARLINK-4539           
1 53423U 22097AM  22248.58334491  .00107711  00000+0  76312-3 0  9990
2 53423  53.2180 117.4460 0001206  91.3736  63.3038 15.73167685  4588
STARLINK-4532           
1 53424U 22097AN  22248.58334491 -.00059675  00000+0 -42329-3 0  9999
2 53424  53.2195 117.4377 0001179  97.7903  60.5164 15.73227625  1304
STARLINK-4531           
1 53425U 22097AP  22248.58334491 -.00041375  00000+0 -29124-3 0  9996
2 53425  53.2196 117.4409 0000933  94.6032  61.9062 15.73248058  1303
STARLINK-4558           
1 53426U 22097AQ  22248.58334491 -.00019776  00000+0 -13679-3 0  9995
2 53426  53.2195 117.4366 0000953  91.0154  67.9002 15.73205777  1304
STARLINK-4541           
1 53427U 22097AR  22248.58334491 -.00028012  00000+0 -19549-3 0  9991
2 53427  53.2184 117.4382 0001264  95.5849  62.1404 15.73241085  1302
STARLINK-4540           
1 53428U 22097AS  22248.58334491 -.00041790  00000+0 -29408-3 0  9995
2 53428  53.2192 117.4316 0001032  90.4563  70.2137 15.73258800  1305
STARLINK-4543           
1 53429U 22097AT  22248.58334491 -.00019359  00000+0 -13379-3 0  9992
2 53429  53.2194 117.4326 0001243 105.2389  54.9058 15.73207967  4586
STARLINK-4538           
1 53430U 22097AU  22248.58334491 -.00023817  00000+0 -16559-3 0  9991
2 53430  53.2184 117.4324 0001329  91.5628  69.6998 15.73223780  4580
STARLINK-4548           
1 53431U 22097AV  22248.58334491 -.00053652  00000+0 -38040-3 0  9991
2 53431  53.2195 117.4350 0000997  79.2255  80.2738 15.73194625  4587
STARLINK-4557           
1 53432U 22097AW  22248.58334491 -.00050420  00000+0 -35632-3 0  9996
2 53432  53.2182 117.4297 0001016  91.0032  72.0535 15.73243896  4581
STARLINK-4549           
1 53433U 22097AX  22248.58334491 -.00042879  00000+0 -30228-3 0  9992
2 53433  53.2194 117.4298 0001010  88.1823  73.7229 15.73229784  1300
STARLINK-4498           
1 53434U 22097AY  22248.58334491  .00002996  00000+0  25760-4 0  9993
2 53434  53.2193 117.4255 0000908  89.9710  74.3180 15.73192626  4582
STARLINK-4542           
1 53435U 22097AZ  22248.58334491 -.00054778  00000+0 -38774-3 0  9999
2 53435  53.2181 117.4301 0001063  91.2148  71.2699 15.73241464  4582
STARLINK-4527           
1 53436U 22097BA  22248.58334491 -.00029964  00000+0 -20969-3 0  9996
2 53436  53.2194 117.4240 0001060  82.1522  82.7192 15.73216915  1306
STARLINK-4526           
1 53438U 22097BC  22248.58334491 -.00003755  00000+0 -22349-4 0  9993
2 53438  53.2195 117.4233 0001157  96.3440  69.1066 15.73204706  4581
STARLINK-4519           
1 53439U 22097BD  22248.58334491 -.00045692  00000+0 -32232-3 0  9991
2 53439  53.2197 117.4219 0000883  96.1675  69.9188 15.73243366  1306
2022-098A               
1 53444U 22098A   22248.51927473  .00004080  00000+0  26329-3 0  9993
2 53444  97.5290 344.3715 0012490 157.0760 259.1267 15.08764348  3970
2022-098B               
1 53445U 22098B   22248.78444194  .00004008  00000+0  25375-3 0  9997
2 53445  97.5322 344.6686 0010380 168.2670 309.4083 15.09499690  3990
2022-098C               
1 53446U 22098C   22248.54054398  .00004050  00000+0  26053-3 0  9996
2 53446  97.5332 344.4122 0012781 160.6117  21.8142 15.08887584  3953
2022-098D               
1 53447U 22098D   22248.59339147  .00004106  00000+0  26245-3 0  9995
2 53447  97.5244 344.4385 0011878 163.5625 320.4935 15.09118807  3964
2022-098E               
1 53448U 22098E   22248.59037140  .00004096  00000+0  26085-3 0  9994
2 53448  97.5320 344.4701 0012424 169.6211 314.7850 15.09251651  3965
2022-098F               
1 53449U 22098F   22248.58874494  .00004177  00000+0  26500-3 0  9997
2 53449  97.5262 344.4508 0011813 170.6547 313.9114 15.09389935  3962
2022-098G               
1 53450U 22098G   22248.45374292  .00003816  00000+0  24126-3 0  9997
2 53450  97.5324 344.3459 0009423 169.9791 320.4306 15.09587898  3945
2022-098H               
1 53451U 22098H   22248.45237275  .00004011  00000+0  25279-3 0  9995
2 53451  97.5373 344.3653 0009851 173.5750 316.7672 15.09666405  3943
2022-098J               
1 53452U 22098J   22248.45074823  .00004103  00000+0  25786-3 0  9999
2 53452  97.5273 344.3318 0009845 176.3568 313.9408 15.09760808  3940
2022-098K               
1 53453U 22098K   22248.44941275  .00004454  00000+0  27890-3 0  9990
2 53453  97.5328 344.3514 0010523 179.4387 311.3345 15.09843648  3944
2022-098L               
1 53454U 22098L   22248.57199818  .00007760  00000+0  47930-3 0  9993
2 53454  97.5284 344.4592 0012436 186.8340 268.6673 15.10089684  3963
2022-098M               
1 53455U 22098M   22248.57762090  .00008104  00000+0  50014-3 0  9992
2 53455  97.5294 344.4739 0012285 187.4687 300.2741 15.10108900  3963
2022-098N               
1 53456U 22098N   22248.49765368  .00007612  00000+0  46958-3 0  9990
2 53456  97.5264 344.3842 0012053 187.7568 229.2464 15.10145055  3952
2022-098P               
1 53457U 22098P   22248.49471241  .00008073  00000+0  49559-3 0  9997
2 53457  97.5268 344.3901 0011284 190.8231 225.8638 15.10314143  3951
